$$SOE
2460721.500000000, A.D. 2025-Feb-15 00:00:00.0000, -3.908592132447864E+08, -4.024975973479821E+08, -2.668476403187206E+07,
2460728.500000000, A.D. 2025-Feb-22 00:00:00.0000, -3.843813655824160E+08, -4.083959171900390E+08, -2.536996894605777E+07,
2460735.500000000, A.D. 2025-Mar-01 00:00:00.0000, -3.777980575654812E+08, -4.141822581228418E+08, -2.404821301260945E+07,
2460742.500000000, A.D. 2025-Mar-08 00:00:00.0000, -3.711109326073355E+08, -4.198548572102846E+08, -2.271984903570092E+07,
2460749.500000000, A.D. 2025-Mar-15 00:00:00.0000, -3.643216591147307E+08, -4.254119670702759E+08, -2.138523225615442E+07,
2460756.500000000, A.D. 2025-Mar-22 00:00:00.0000, -3.574319328136268E+08, -4.308518556947193E+08, -2.004472010424450E+07,
2460763.500000000, A.D. 2025-Mar-29 00:00:00.0000, -3.504434777093176E+08, -4.361728085368735E+08, -1.869867226114702E+07,
2460770.500000000, A.D. 2025-Apr-05 00:00:00.0000, -3.433580453561514E+08, -4.413731297283702E+08, -1.734745080260444E+07,
2460777.500000000, A.D. 2025-Apr-12 00:00:00.0000, -3.361774143629681E+08, -4.464511423215775E+08, -1.599142023978463E+07,
2460784.500000000, A.D. 2025-Apr-19 00:00:00.0000, -3.289033903211312E+08, -4.514051884378961E+08, -1.463094751229540E+07,
2460791.500000000, A.D. 2025-Apr-26 00:00:00.0000, -3.215378058828267E+08, -4.562336295241951E+08, -1.326640197497955E+07,
2460798.500000000, A.D. 2025-May-03 00:00:00.0000, -3.140825208750458E+08, -4.609348466975355E+08, -1.189815538746971E+07,
2460805.500000000, A.D. 2025-May-10 00:00:00.0000, -3.065394224196485E+08, -4.655072411691841E+08, -1.052658190853459E+07,
2460812.500000000, A.D. 2025-May-17 00:00:00.0000, -2.989104250218489E+08, -4.699492347890587E+08, -9.152058102052242E+06,
2460819.500000000, A.D. 2025-May-24 00:00:00.0000, -2.911974704525511E+08, -4.742592707655672E+08, -7.774962975101471E+06,
2460826.500000000, A.D. 2025-May-31 00:00:00.0000, -2.834025270064648E+08, -4.784358142504928E+08, -6.395678061112642E+06,
2460833.500000000, A.D. 2025-Jun-07 00:00:00.0000, -2.755275885368197E+08, -4.824773515845055E+08, -5.014587412798494E+06,
2460840.500000000, A.D. 2025-Jun-14 00:00:00.0000, -2.675746756308313E+08, -4.863823888701255E+08, -3.632077342403859E+06,
2460847.500000000, A.D. 2025-Jun-21 00:00:00.0000, -2.595458377085074E+08, -4.901494531438042E+08, -2.248536288155586E+06,
2460854.500000000, A.D. 2025-Jun-28 00:00:00.0000, -2.514431529164253E+08, -4.937770943832898E+08, -8.643549495119750E+05,
2460861.500000000, A.D. 2025-Jul-05 00:00:00.0000, -2.432687273332642E+08, -4.972638861942138E+08, 5.200736243402064E+05,
2460868.500000000, A.D. 2025-Jul-12 00:00:00.0000, -2.350246946778351E+08, -5.006084259810479E+08, 1.904354036382198E+06,
2460875.500000000, A.D. 2025-Jul-19 00:00:00.0000, -2.267132163294638E+08, -5.038093351771995E+08, 3.288088569858432E+06,
2460882.500000000, A.D. 2025-Jul-26 00:00:00.0000, -2.183364814500400E+08, -5.068652595906639E+08, 4.670877218859434E+06,
2460889.500000000, A.D. 2025-Aug-02 00:00:00.0000, -2.098967071415679E+08, -5.097748698436428E+08, 6.052317717339039E+06,
2460896.500000000, A.D. 2025-Aug-09 00:00:00.0000, -2.013961386151352E+08, -5.125368619209478E+08, 7.432005563454062E+06,
2460903.500000000, A.D. 2025-Aug-16 00:00:00.0000, -1.928370492938145E+08, -5.151499578905551E+08, 8.809534027294189E+06,
2460910.500000000, A.D. 2025-Aug-23 00:00:00.0000, -1.842217405563580E+08, -5.176129067798653E+08, 1.018449411685652E+07,
2460917.500000000, A.D. 2025-Aug-30 00:00:00.0000, -1.755525407922427E+08, -5.199244848935851E+08, 1.155647453082260E+07,
2460924.500000000, A.D. 2025-Sep-06 00:00:00.0000, -1.668318051855625E+08, -5.220834945726222E+08, 1.292506181033069E+07,
2460931.500000000, A.D. 2025-Sep-13 00:00:00.0000, -1.580619178974732E+08, -5.240887638763463E+08, 1.428984064038485E+07,
2460938.500000000, A.D. 2025-Sep-20 00:00:00.0000, -1.492452933727582E+08, -5.259391488328148E+08, 1.565039386658403E+07,
2460945.500000000, A.D. 2025-Sep-27 00:00:00.0000, -1.403843757112818E+08, -5.276335351461028E+08, 1.700630238472676E+07,
2460952.500000000, A.D. 2025-Oct-04 00:00:00.0000, -1.314816381205526E+08, -5.291708388217344E+08, 1.835714513268560E+07,
2460959.500000000, A.D. 2025-Oct-11 00:00:00.0000, -1.225395828223969E+08, -5.305500066529785E+08, 1.970249914201611E+07,
2460966.500000000, A.D. 2025-Oct-18 00:00:00.0000, -1.135607411292216E+08, -5.317700168420067E+08, 2.104193960100368E+07,
2460973.500000000, A.D. 2025-Oct-25 00:00:00.0000, -1.045476735493153E+08, -5.328298797444712E+08, 2.237503991729569E+07,
2460980.500000000, A.D. 2025-Nov-01 00:00:00.0000, -9.550296988063130E+07, -5.337286387217205E+08, 2.370137177774805E+07,
2460987.500000000, A.D. 2025-Nov-08 00:00:00.0000, -8.642924925743994E+07, -5.344653711319765E+08, 2.502050519972023E+07,
2460994.500000000, A.D. 2025-Nov-15 00:00:00.0000, -7.732916000108282E+07, -5.350391895190502E+08, 2.633200855545178E+07,
2461001.500000000, A.D. 2025-Nov-22 00:00:00.0000, -6.820537887137844E+07, -5.354492427785137E+08, 2.763544855057910E+07,
2461008.500000000, A.D. 2025-Nov-29 00:00:00.0000, -5.906060987126125E+07, -5.356947161661735E+08, 2.893039026361388E+07,
2461015.500000000, A.D. 2025-Dec-06 00:00:00.0000, -4.989758488143919E+07, -5.357748302841691E+08, 3.021639744412917E+07,
2461022.500000000, A.D. 2025-Dec-13 00:00:00.0000, -4.071906569038739E+07, -5.356888424140251E+08, 3.149303275436568E+07,
2461029.500000000, A.D. 2025-Dec-20 00:00:00.0000, -3.152784392538898E+07, -5.354360491730387E+08, 3.275985771749625E+07,
2461036.500000000, A.D. 2025-Dec-27 00:00:00.0000, -2.232673995766591E+07, -5.350157879021581E+08, 3.401643268293434E+07,
2461043.500000000, A.D. 2026-Jan-03 00:00:00.0000, -1.311860223992814E+07, -5.344274373994795E+08, 3.526231689230150E+07,
2461050.500000000, A.D. 2026-Jan-10 00:00:00.0000, -3.906306965154381E+06, -5.336704186764687E+08, 3.649706858053243E+07,
2461057.500000000, A.D. 2026-Jan-17 00:00:00.0000, 5.307242187778906E+06, -5.327441958269213E+08, 3.772024508335623E+07,
2461064.500000000, A.D. 2026-Jan-24 00:00:00.0000, 1.451911430146700E+07, -5.316482769849627E+08, 3.893140294600594E+07,
2461071.500000000, A.D. 2026-Jan-31 00:00:00.0000, 2.372635148550481E+07, -5.303822153789015E+08, 4.013009803066918E+07,
2461078.500000000, A.D. 2026-Feb-07 00:00:00.0000, 3.292596922304737E+07, -5.289456105378832E+08, 4.131588561273992E+07,
2461085.500000000, A.D. 2026-Feb-14 00:00:00.0000, 4.211495705248416E+07, -5.273381096661425E+08, 4.248832044185340E+07,
2461092.500000000, A.D. 2026-Feb-21 00:00:00.0000, 5.129027997259497E+07, -5.255594086070470E+08, 4.364695677974635E+07,
2461099.500000000, A.D. 2026-Feb-28 00:00:00.0000, 6.044887948707511E+07, -5.236092512422732E+08, 4.479134860902920E+07,
2461106.500000000, A.D. 2026-Mar-07 00:00:00.0000, 6.958767223081662E+07, -5.214874292742732E+08, 4.592105004244056E+07,
2461113.500000000, A.D. 2026-Mar-14 00:00:00.0000, 7.870354895528071E+07, -5.191937847230179E+08, 4.703561548739156E+07,
2461120.500000000, A.D. 2026-Mar-21 00:00:00.0000, 8.779337565771468E+07, -5.167282122383044E+08, 4.813459963934124E+07,
2461127.500000000, A.D. 2026-Mar-28 00:00:00.0000, 9.685399484629607E+07, -5.140906601985090E+08, 4.921755757272434E+07,
2461134.500000000, A.D. 2026-Apr-04 00:00:00.0000, 1.058822263387755E+08, -5.112811315605852E+08, 5.028404490621907E+07,
2461141.500000000, A.D. 2026-Apr-11 00:00:00.0000, 1.148748678698588E+08, -5.082996848201644E+08, 5.133361798812735E+07,
2461148.500000000, A.D. 2026-Apr-18 00:00:00.0000, 1.238286956680294E+08, -5.051464350872063E+08, 5.236583408699602E+07,
2461155.500000000, A.D. 2026-Apr-25 00:00:00.0000, 1.327404650492408E+08, -5.018215552610394E+08, 5.338025158471286E+07,
2461162.500000000, A.D. 2026-May-02 00:00:00.0000, 1.416069110600601E+08, -4.983252773328652E+08, 5.437643016704419E+07,
2461169.500000000, A.D. 2026-May-09 00:00:00.0000, 1.504247492969961E+08, -4.946578938805510E+08, 5.535393099501733E+07,
2461176.500000000, A.D. 2026-May-16 00:00:00.0000, 1.591906772820698E+08, -4.908197596162747E+08, 5.631231683411606E+07,
2461183.500000000, A.D. 2026-May-23 00:00:00.0000, 1.679013764481872E+08, -4.868112919637082E+08, 5.725115222043030E+07,
2461190.500000000, A.D. 2026-May-30 00:00:00.0000, 1.765535126570469E+08, -4.826329703437958E+08, 5.817000388067412E+07,
2461197.500000000, A.D. 2026-Jun-06 00:00:00.0000, 1.851437349333219E+08, -4.782853374403121E+08, 5.906844116747040E+07,
2461204.500000000, A.D. 2026-Jun-13 00:00:00.0000, 1.936686760827337E+08, -4.737690022438517E+08, 5.994603618969096E+07,
2461211.500000000, A.D. 2026-Jun-20 00:00:00.0000, 2.021249546947564E+08, -4.690846419465745E+08, 6.080236392289652E+07,
2461218.500000000, A.D. 2026-Jun-27 00:00:00.0000, 2.105091768328719E+08, -4.642330030260441E+08, 6.163700242780758E+07,
2461225.500000000, A.D. 2026-Jul-04 00:00:00.0000, 2.188179374132693E+08, -4.592149022910633E+08, 6.244953311329158E+07,
2461232.500000000, A.D. 2026-Jul-11 00:00:00.0000, 2.270478215268183E+08, -4.540312280191178E+08, 6.323954100952169E+07,
2461239.500000000, A.D. 2026-Jul-18 00:00:00.0000, 2.351954057978351E+08, -4.486829411571223E+08, 6.400661504456897E+07,
2461246.500000000, A.D. 2026-Jul-25 00:00:00.0000, 2.432572598048566E+08, -4.431710765798536E+08, 6.475034832201526E+07,
2461253.500000000, A.D. 2026-Aug-01 00:00:00.0000, 2.512299476124696E+08, -4.374967444510190E+08, 6.547033839083923E+07,
2461260.500000000, A.D. 2026-Aug-08 00:00:00.0000, 2.591100296303636E+08, -4.316611317197682E+08, 6.616618748469251E+07,
2461267.500000000, A.D. 2026-Aug-15 00:00:00.0000, 2.668940652159914E+08, -4.256655032997269E+08, 6.683750272934949E+07,
2461274.500000000, A.D. 2026-Aug-22 00:00:00.0000, 2.745786152604975E+08, -4.195112017071746E+08, 6.748389648812683E+07,
2461281.500000000, A.D. 2026-Aug-29 00:00:00.0000, 2.821602424683484E+08, -4.131996465283346E+08, 6.810498694290110E+07,
$$EOE